start=new Date('2023-05-25T00:00:00.000Z').valueOf();
sats=[{"SITE":"AFETR","COUNTRY_CODE":"US","BSTAR":"0.00160070000000","MEAN_ELEMENT_THEORY":"SGP4","EPOCH":"2023-05-24T15:23:09.394944","TLE_LINE1":"1 47620U 21012A   23144.64108096  .00023668  00000-0  16007-2 0  9994","REV_AT_EPOCH":"12623","LAUNCH_DATE":"2021-02-16","MEAN_MOTION_DOT":"0.00023668","INCLINATION":"53.0539","PERIOD":"95.590","RCS_SIZE":"LARGE","MEAN_MOTION_DDOT":"0.0000000000000","OBJECT_ID":"2021-012A","CENTER_NAME":"EARTH","ARG_OF_PERICENTER":"342.8048","NORAD_CAT_ID":"47620","FILE":"3916549","OBJECT_NAME":"STARLINK-1528","REF_FRAME":"TEME","MEAN_MOTION":"15.06440832","EPHEMERIS_TYPE":"0","RA_OF_ASC_NODE":"330.7926","MEAN_ANOMALY":"17.2932","OBJECT_TYPE":"PAYLOAD","DECAY_DATE":null,"TIME_SYSTEM":"UTC","APOAPSIS":"547.261","SEMIMAJOR_AXIS":"6925.223","ELEMENT_SET_NO":"999","PERIAPSIS":"546.916","CLASSIFICATION_TYPE":"U","TLE_LINE2":"2 47620  53.0539 330.7926 0000249 342.8048  17.2932 15.06440832126231","GP_ID":"232447560","ECCENTRICITY":"0.00002490"},{"RA_OF_ASC_NODE":"330.8303","EPHEMERIS_TYPE":"0","DECAY_DATE":null,"TIME_SYSTEM":"UTC","OBJECT_TYPE":"PAYLOAD","MEAN_ANOMALY":"238.3187","SEMIMAJOR_AXIS":"6925.265","APOAPSIS":"547.452","ECCENTRICITY":"0.00004640","GP_ID":"232447808","TLE_LINE2":"2 47621  53.0535 330.8303 0000464 121.7847 238.3187 15.06427123126245","CLASSIFICATION_TYPE":"U","PERIAPSIS":"546.809","ELEMENT_SET_NO":"999","COUNTRY_CODE":"US","SITE":"AFETR","PERIOD":"95.590","LAUNCH_DATE":"2021-02-16","INCLINATION":"53.0535","MEAN_MOTION_DOT":"0.00017667","REV_AT_EPOCH":"12624","TLE_LINE1":"1 47621U 21012B   23144.63371764  .00017667  00000-0  12011-2 0  9991","EPOCH":"2023-05-24T15:12:33.204096","BSTAR":"0.00120110000000","MEAN_ELEMENT_THEORY":"SGP4","CENTER_NAME":"EARTH","MEAN_MOTION_DDOT":"0.0000000000000","OBJECT_ID":"2021-012B","RCS_SIZE":"LARGE","MEAN_MOTION":"15.06427123","OBJECT_NAME":"STARLINK-1609","REF_FRAME":"TEME","FILE":"3916549","NORAD_CAT_ID":"47621","ARG_OF_PERICENTER":"121.7847"},{"RA_OF_ASC_NODE":"330.8362","EPHEMERIS_TYPE":"0","DECAY_DATE":null,"TIME_SYSTEM":"UTC","MEAN_ANOMALY":"243.8128","OBJECT_TYPE":"PAYLOAD","APOAPSIS":"547.671","SEMIMAJOR_AXIS":"6925.264","GP_ID":"232447301","TLE_LINE2":"2 47622  53.0539 330.8362 0000783 116.2942 243.8128 15.06427725126237","ECCENTRICITY":"0.00007830","PERIAPSIS":"546.586","CLASSIFICATION_TYPE":"U","ELEMENT_SET_NO":"999","COUNTRY_CODE":"US","SITE":"AFETR","LAUNCH_DATE":"2021-02-16","MEAN_MOTION_DOT":"0.00017252","INCLINATION":"53.0539","PERIOD":"95.590","REV_AT_EPOCH":"12623","EPOCH":"2023-05-24T15:05:53.088288","TLE_LINE1":"1 47622U 21012C   23144.62908667  .00017252  00000-0  11734-2 0  9990","MEAN_ELEMENT_THEORY":"SGP4","BSTAR":"0.00117340000000","MEAN_MOTION_DDOT":"0.0000000000000","OBJECT_ID":"2021-012C","CENTER_NAME":"EARTH","RCS_SIZE":"LARGE","REF_FRAME":"TEME","OBJECT_NAME":"STARLINK-1645","MEAN_MOTION":"15.06427725","NORAD_CAT_ID":"47622","ARG_OF_PERICENTER":"116.2942","FILE":"3916549"},{"EPHEMERIS_TYPE":"0","RA_OF_ASC_NODE":"265.7904","OBJECT_TYPE":"PAYLOAD","MEAN_ANOMALY":"285.8937","DECAY_DATE":null,"TIME_SYSTEM":"UTC","APOAPSIS":"547.781","SEMIMAJOR_AXIS":"6925.224","ELEMENT_SET_NO":"999","PERIAPSIS":"546.396","CLASSIFICATION_TYPE":"U","TLE_LINE2":"2 47623  53.0536 265.7904 0001000  74.2163 285.8937 15.06440661127154","GP_ID":"232448053","ECCENTRICITY":"0.00010000","SITE":"AFETR","COUNTRY_CODE":"US","BSTAR":"0.00148330000000","MEAN_ELEMENT_THEORY":"SGP4","EPOCH":"2023-05-24T15:23:48.956640","TLE_LINE1":"1 47623U 21012D   23144.64153885  .00021906  00000-0  14833-2 0  9991","REV_AT_EPOCH":"12715","INCLINATION":"53.0536","LAUNCH_DATE":"2021-02-16","MEAN_MOTION_DOT":"0.00021906","PERIOD":"95.590","RCS_SIZE":"LARGE","OBJECT_ID":"2021-012D","MEAN_MOTION_DDOT":"0.0000000000000","CENTER_NAME":"EARTH","NORAD_CAT_ID":"47623","ARG_OF_PERICENTER":"74.2163","FILE":"3916549","REF_FRAME":"TEME","OBJECT_NAME":"STARLINK-1655","MEAN_MOTION":"15.06440661"},{"TIME_SYSTEM":"UTC","DECAY_DATE":null,"MEAN_ANOMALY":"336.6952","OBJECT_TYPE":"PAYLOAD","EPHEMERIS_TYPE":"0","RA_OF_ASC_NODE":"310.8196","ECCENTRICITY":"0.00004570","GP_ID":"232448061","TLE_LINE2":"2 47624  53.0545 310.8196 0000457  23.4058 336.6952 15.06439618126537","ELEMENT_SET_NO":"999","CLASSIFICATION_TYPE":"U","PERIAPSIS":"546.776","SEMIMAJOR_AXIS":"6925.227","APOAPSIS":"547.409","REV_AT_EPOCH":"12653","PERIOD":"95.590","LAUNCH_DATE":"2021-02-16","INCLINATION":"53.0545","MEAN_MOTION_DOT":"0.00019034","MEAN_ELEMENT_THEORY":"SGP4","BSTAR":"0.00129190000000","TLE_LINE1":"1 47624U 21012E   23144.63555499  .00019034  00000-0  12919-2 0  9990","EPOCH":"2023-05-24T15:15:11.951136","COUNTRY_CODE":"US","SITE":"AFETR","FILE":"3916549","ARG_OF_PERICENTER":"23.4058","NORAD_CAT_ID":"47624","MEAN_MOTION":"15.06439618","OBJECT_NAME":"STARLINK-1669","REF_FRAME":"TEME","RCS_SIZE":"LARGE","CENTER_NAME":"EARTH","MEAN_MOTION_DDOT":"0.0000000000000","OBJECT_ID":"2021-012E"},{"APOAPSIS":"547.631","SEMIMAJOR_AXIS":"6925.275","TLE_LINE2":"2 47625  53.0532 330.8082 0000709 118.1614 241.9447 15.06423961126238","GP_ID":"232448309","ECCENTRICITY":"0.00007090","PERIAPSIS":"546.649","CLASSIFICATION_TYPE":"U","ELEMENT_SET_NO":"999","RA_OF_ASC_NODE":"330.8082","EPHEMERIS_TYPE":"0","DECAY_DATE":null,"TIME_SYSTEM":"UTC","OBJECT_TYPE":"PAYLOAD","MEAN_ANOMALY":"241.9447","OBJECT_ID":"2021-012F","MEAN_MOTION_DDOT":"0.0000000000000","CENTER_NAME":"EARTH","RCS_SIZE":"LARGE","REF_FRAME":"TEME","OBJECT_NAME":"STARLINK-1704","MEAN_MOTION":"15.06423961","ARG_OF_PERICENTER":"118.1614","NORAD_CAT_ID":"47625","FILE":"3916549","COUNTRY_CODE":"US","SITE":"AFETR","LAUNCH_DATE":"2021-02-16","MEAN_MOTION_DOT":"0.00017225","INCLINATION":"53.0532","PERIOD":"95.591","REV_AT_EPOCH":"12623","EPOCH":"2023-05-24T15:16:30.088704","TLE_LINE1":"1 47625U 21012F   23144.63645936  .00017225  00000-0  11717-2 0  9992","BSTAR":"0.00117170000000","MEAN_ELEMENT_THEORY":"SGP4"},{"COUNTRY_CODE":"US","SITE":"AFETR","REV_AT_EPOCH":"12624","LAUNCH_DATE":"2021-02-16","MEAN_MOTION_DOT":"0.00018400","INCLINATION":"53.0542","PERIOD":"95.590","MEAN_ELEMENT_THEORY":"SGP4","BSTAR":"0.00124970000000","EPOCH":"2023-05-24T16:32:10.020768","TLE_LINE1":"1 47626U 21012G   23144.68900487  .00018400  00000-0  12497-2 0  9995","RCS_SIZE":"LARGE","MEAN_MOTION_DDOT":"0.0000000000000","OBJECT_ID":"2021-012G","CENTER_NAME":"EARTH","NORAD_CAT_ID":"47626","ARG_OF_PERICENTER":"66.3414","FILE":"3916549","OBJECT_NAME":"STARLINK-1761","REF_FRAME":"TEME","MEAN_MOTION":"15.06437232","EPHEMERIS_TYPE":"0","RA_OF_ASC_NODE":"330.5772","TIME_SYSTEM":"UTC","DECAY_DATE":null,"MEAN_ANOMALY":"293.7710","OBJECT_TYPE":"PAYLOAD","APOAPSIS":"547.993","SEMIMAJOR_AXIS":"6925.234","TLE_LINE2":"2 47626  53.0542 330.5772 0001290  66.3414 293.7710 15.06437232126246","GP_ID":"232446801","ECCENTRICITY":"0.00012900","ELEMENT_SET_NO":"999","PERIAPSIS":"546.206","CLASSIFICATION_TYPE":"U"},{"MEAN_MOTION_DDOT":"0.0000000000000","OBJECT_ID":"2021-012H","CENTER_NAME":"EARTH","RCS_SIZE":"LARGE","REF_FRAME":"TEME","OBJECT_NAME":"STARLINK-1972","MEAN_MOTION":"15.06376292","ARG_OF_PERICENTER":"92.1913","NORAD_CAT_ID":"47627","FILE":"3916549","COUNTRY_CODE":"US","SITE":"AFETR","INCLINATION":"53.0533","LAUNCH_DATE":"2021-02-16","MEAN_MOTION_DOT":"-0.00000473","PERIOD":"95.594","REV_AT_EPOCH":"12754","EPOCH":"2023-05-24T15:11:52.317024","TLE_LINE1":"1 47627U 21012H   23144.63324441 -.00000473  00000-0 -12897-4 0  9990","BSTAR":"-0.00001289700000","MEAN_ELEMENT_THEORY":"SGP4","APOAPSIS":"548.064","SEMIMAJOR_AXIS":"6925.421","GP_ID":"232447553","TLE_LINE2":"2 47627  53.0533 235.8291 0001123  92.1913 267.9204 15.06376292127549","ECCENTRICITY":"0.00011230","PERIAPSIS":"546.508","CLASSIFICATION_TYPE":"U","ELEMENT_SET_NO":"999","RA_OF_ASC_NODE":"235.8291","EPHEMERIS_TYPE":"0","DECAY_DATE":null,"TIME_SYSTEM":"UTC","OBJECT_TYPE":"PAYLOAD","MEAN_ANOMALY":"267.9204"},{"APOAPSIS":"547.712","SEMIMAJOR_AXIS":"6925.304","ELEMENT_SET_NO":"999","PERIAPSIS":"546.626","CLASSIFICATION_TYPE":"U","GP_ID":"232447561","TLE_LINE2":"2 47628  53.0551 330.7052 0000784  73.7272 286.3803 15.06414479126241","ECCENTRICITY":"0.00007840","EPHEMERIS_TYPE":"0","RA_OF_ASC_NODE":"330.7052","OBJECT_TYPE":"PAYLOAD","MEAN_ANOMALY":"286.3803","DECAY_DATE":null,"TIME_SYSTEM":"UTC","RCS_SIZE":"LARGE","OBJECT_ID":"2021-012J","MEAN_MOTION_DDOT":"0.0000000000000","CENTER_NAME":"EARTH","NORAD_CAT_ID":"47628","ARG_OF_PERICENTER":"73.7272","FILE":"3916549","OBJECT_NAME":"STARLINK-1973","REF_FRAME":"TEME","MEAN_MOTION":"15.06414479","SITE":"AFETR","COUNTRY_CODE":"US","BSTAR":"0.00136590000000","MEAN_ELEMENT_THEORY":"SGP4","EPOCH":"2023-05-24T15:48:20.318400","TLE_LINE1":"1 47628U 21012J   23144.65856850  .00020130  00000-0  13659-2 0  9992","REV_AT_EPOCH":"12624","MEAN_MOTION_DOT":"0.00020130","LAUNCH_DATE":"2021-02-16","INCLINATION":"53.0551","PERIOD":"95.591"},{"RA_OF_ASC_NODE":"211.0887","EPHEMERIS_TYPE":"0","MEAN_ANOMALY":"283.6285","OBJECT_TYPE":"PAYLOAD","DECAY_DATE":null,"TIME_SYSTEM":"UTC","APOAPSIS":"548.066","SEMIMAJOR_AXIS":"6925.369","PERIAPSIS":"546.402","CLASSIFICATION_TYPE":"U","ELEMENT_SET_NO":"999","TLE_LINE2":"2 47629  53.0524 211.0887 0001201  76.4838 283.6285 15.06393392127898","GP_ID":"232447809","ECCENTRICITY":"0.00012010","SITE":"AFETR","COUNTRY_CODE":"US","EPOCH":"2023-05-24T13:47:36.557952","TLE_LINE1":"1 47629U 21012K   23144.57472868 -.00000970  00000-0 -46279-4 0  9995","MEAN_ELEMENT_THEORY":"SGP4","BSTAR":"-0.00004627900000","MEAN_MOTION_DOT":"-0.00000970","LAUNCH_DATE":"2021-02-16","INCLINATION":"53.0524","PERIOD":"95.593","REV_AT_EPOCH":"12789","MEAN_MOTION_DDOT":"0.0000000000000","OBJECT_ID":"2021-012K","CENTER_NAME":"EARTH","RCS_SIZE":"LARGE","REF_FRAME":"TEME","OBJECT_NAME":"STARLINK-1974","MEAN_MOTION":"15.06393392","NORAD_CAT_ID":"47629","ARG_OF_PERICENTER":"76.4838","FILE":"3916549"}];
